#dP2022  2 13  0  0  0.00000000      96 __u+U ITR00 FIT  IAC
## 2197      0.00000000   900.00000000 59623 0.0000000000000
+  116   C06C07C08C09C10C11C12C13C14C16C19C20C21C22C23C24C25
+        C26C27C28C29C30C32C33C34C35C36C37C38C39C40C41C42C43
+        C44C45C46E01E02E03E04E05E07E08E09E11E12E13E14E15E18
+        E21E24E25E26E27E30E31E33E34E36G01G02G03G04G05G06G07
+        G08G09G10G11G12G13G14G15G16G17G18G19G20G21G22G23G24
+        G25G26G27G28G29G30G31G32J01J02J03R01R02R03R04R05R07
+        R08R09R11R12R13R14R15R17R18R19R20R21R22R24  0  0  0
++         9  8  5  9  6  8  6  7  7  9  9  6  7  7  7  6  8
++         5  5  7  7  7  7  8  8  7  6  6  7  9  8  7  6  8
++         7  6  6  6  6  7  7  6  7  8  7  6  7  7  6  6  6
++         7  6  5  7  6  7  6  6  0  6  6  6  6  7  7  6  6
++         7  7  6  6  5  6  6  6  6  8  6  6  6  6  6  6  6
++         5  6  6  5  7  6  6  7  9  8  8  7  7  6  6  7  6
++         6  7  8  8  6  5  5  7  7  8  8  8  8  8  0  0  0
%c M  cc GPS ccc cccc cccc cccc cccc ccccc ccccc ccccc ccccc
%c cc cc ccc ccc cccc cccc cccc cccc ccccc ccccc ccccc ccccc
%f  0.0000000  0.000000000  0.00000000000  0.000000000000000
%f  0.0000000  0.000000000  0.00000000000  0.000000000000000
%i    0    0    0    0      0      0      0      0         0
%i    0    0    0    0      0      0      0      0         0
/* INFORMATION & ANALYSIS CENTER (IAC)      ULTRA-RAPID DATA
/* S/V CLOCKS ARE ALIGNED TO GNSS TIME                      
/* G:C1WC2W R:C1PC2P E:C1XC5X C:C2IC6I J:C1CC2S             
/* PCV:IGS14_2194 OL/AL:FES2004  NONE     YN ORB:CoN CLK:CoN
*  2022 02 13 13 45  0.00000000
PC06 -11243.177447  22929.022733 -33579.332829     43.767189
PC07 -15792.232063  38223.385571   7802.429780    -48.392897
PC08     74.720988  34425.724078  24458.147303    131.429193
PC09   -488.047645  24521.543725 -33948.635720   -519.442097
PC10  -9352.263996  38377.776022  14318.185082    139.843860
PC11  20763.198372  -8187.416806 -16699.004791   -210.648809
PC12  27731.294723   3087.642384   -636.825728    680.841188
PC13   5384.095061  37800.157489  18312.100684   -117.837961
PC14  19208.190933 -19396.953719  -5904.106022    455.723462
PC16 -12343.498460  22118.832362 -33616.777269     81.283979
PC19 -14304.291561  23691.210402  -3499.059085    897.981236
PC20 -20788.453213  13323.334729  12994.627732   -822.353794
PC21  15189.042556   5692.578358 -22691.057273   -948.862811
PC22    735.218014  20725.481437 -18658.423101   -957.865194
PC23  -8954.085042 -26245.514336   3076.792005   -961.110444
PC24  16577.284701  -2129.349908  22333.769714   -943.812150
PC25   4253.591374 -21091.118514  17747.899169   -780.021232
PC26  18381.986716  15468.069284  14215.594161    779.718901
PC27 -25272.540150  -8747.905080  -8022.913371    676.788724
PC28  -9928.510922 -15728.727421 -20798.820142     32.269993
PC29 -11129.624726  13961.961140  21443.264117    514.622747
PC30 -26174.583124   3921.795852   8885.223360    493.264209
PC32 -15209.429655  -5669.749511  22716.044712   -965.201055
PC33  14199.583775 -23782.725671   3459.621817   -957.117267
PC34  25741.031913  -4524.100792  -9750.984745   -469.911292
PC35   9607.101675  15565.104744  21059.706538    137.915070
PC36  -5088.397565  20675.411664 -18026.318203   -902.564222
PC37 -17789.825089 -16795.594454 -13391.118619   -963.532329
PC38  -5676.763439  31235.767539  27848.978996    211.139201
PC39 -18820.581920  20923.817046 -31431.475605     34.780604
PC40 -22244.114052  35136.989760   6372.406838    244.069951
PC41   -488.335038 -20989.572807  18433.272025   -936.777264
PC42  20813.824788 -12565.265437 -13666.694757   -931.071554
PC43  11855.819107 -13813.336021 -21148.972841   -941.976364
PC44  25434.336180   8007.113728   8158.868191    563.545883
PC45   9147.109523  26223.457763  -2875.048238    679.503663
PC46 -15917.746412   3708.065897 -22620.366979   -166.491579
PE01 -16668.484814   -168.993440 -24464.564905   -578.322772
PE02  16672.439883     26.158954  24450.497957    280.002143
PE03  27341.282545  -4495.346401 -10428.679828   -527.333174
PE04 -23159.670250  16709.396671  -7787.041361   -963.816707
PE05  15522.207057  10602.635644 -22863.943540   -209.429801
PE07   5161.459255 -19322.465143  21827.380298   -638.600720
PE08  22854.200539 -16932.640398   8209.711573   5855.985789
PE09  -4885.229349  19173.730349 -22010.702169   5361.619150
PE11   5941.826380  20461.227171  20537.322680   4461.446649
PE12 -14257.966588   9282.842126  24230.390390   4761.409544
PE13  -5390.603124 -20218.398476 -20930.428723    426.505637
PE14  19767.698926   7905.016814  14863.740285  -1744.366470
PE15  14289.572535  -9158.794868 -24236.964359    763.530894
PE18 -12173.056467 -16653.123449 -22823.493141  -1797.228490
PE21 -10966.709084 -20017.735249 -18846.159631   -716.939199
PE24  -2347.194743  29511.657819    839.678036  -1388.456475
PE25  10828.032997  20258.461689  18676.489264   -563.495018
PE26 -22246.111105 -19039.796996  -4333.173845   -800.964468
PE27   1373.219680 -29486.088113  -2076.690249   -231.449415
PE30  13373.680403 -20567.548615  16532.315029   -270.914445
PE31 -12798.826381  21539.526648 -15768.243367   -492.133067
PE33 -25467.986128  -7251.301054  13250.787042   -459.468676
PE34      0.000000      0.000000      0.000000 999999.999999
PE36  21755.858188  19332.792574   5370.391831   -331.763529
PG01 -21653.186060 -13098.277302   8348.007547    432.502139
PG02  12021.563496  20540.379815  12317.633050   -650.781749
PG03 -13915.672113  -5723.867329  21791.076843   -119.589107
PG04 -23735.674844  -2183.165986  11806.852854   -189.792581
PG05   6993.341294  20594.018976 -15302.824879    -71.288927
PG06  -2964.027499  16204.681725  20886.678348    200.283580
PG07 -18362.295553   1250.338332 -18940.780336    309.980503
PG08 -16334.105074  -8665.992193 -19219.163871    -56.027779
PG09 -25524.042284   7265.574026   1380.051780   -354.338597
PG10  11562.673934 -21756.370351  -9383.686626   -319.354220
PG11   9724.328705  21846.917724  11572.318022    -90.293238
PG12  12242.096076   9670.251909  21249.002910   -170.412979
PG13   7886.597347  13695.035625 -21523.043530    261.053115
PG14 -13020.000198  20898.127537  -9875.369949    -83.376375
PG15  17809.689023   7389.005630 -18801.472375    -84.141097
PG16  -1850.961249 -22959.917611 -13063.585835   -468.905166
PG17 -18957.871468  13597.878824  13174.103524    574.564398
PG18  17736.922133  -1598.088311 -19739.053477    241.036342
PG19 -12208.514359  14719.480334  18091.269394    118.397285
PG20   2389.462179  25920.025361  -5916.028251    516.723349
PG21 -20800.981234 -17025.298087   -494.744993    157.963403
PG22   8266.252660 -15976.949006  19879.027708    212.977097
PG23  15141.498552 -12362.880621 -17950.041250      1.718105
PG24  22221.277724  14459.541316   3509.398956    274.712169
PG25  15822.617052  -4555.319692  20498.622572    284.948620
PG26   4451.126173 -26011.943720   -242.650968    182.883129
PG27  -4795.171107 -14241.512648 -22097.715827    117.269031
PG28  -9171.913942  25001.396396  -1151.041495    401.360242
PG29  26111.390828  -3292.011192   3761.110874   -479.695920
PG30 -11998.132134  10234.207942 -21308.479888   -513.119841
PG31   1411.576402 -17818.217962  19367.543492   -164.533834
PG32  14696.674591 -15910.098934  15373.686938    -66.991841
PJ01 -36383.024562  21223.037831   2919.559903    249.186745
PJ02 -21776.345708  29230.835573 -16613.922996     -1.330042
PJ03 -28718.904971  23213.866281  25407.348223     -0.514989
PR01  -8967.200372  18739.684414 -14792.117152      7.078125
PR02   7691.559815   7653.955855 -23041.440556    509.523768
PR03  18496.325704  -6876.406690 -16084.843284     51.406403
PR04  18764.846786 -17267.462041   -260.011441    127.509729
PR05   8740.525277 -18079.707471  15724.337147     87.633608
PR07 -18795.887400   7424.265352  15635.054315     31.593683
PR08 -18742.646620  17322.826279    289.549943    -63.548882
PR09 -10930.444682 -20022.284818 -11475.076735     39.259696
PR11  -6529.295633  13768.429453 -20447.550014     45.631369
PR12   2937.102054  24621.586161  -6020.601729     17.166241
PR13  10414.107961  20760.588727  10531.570076    -18.238468
PR14  12000.856253   3911.945614  22169.256960     74.300362
PR15   6473.970221 -14394.573984  20049.999649     98.214058
PR17  24424.904411   4870.803015  -5576.156829    501.245852
PR18  15988.809239  -4082.482583 -19409.777725    107.114398
PR19    657.267089 -10642.986412 -23167.443416   -178.046368
PR20 -18623.157745 -12274.341904 -12408.666819    -64.868849
PR21 -24140.955751  -4247.770857   7027.860158   -277.732383
PR22 -15372.426722   4371.433438  19908.075036   -164.462391
PR24  19244.000034  11961.004102  11745.696621     80.020551
EOF
